! Orbits computed with differential corrections
format  = 'OEF1.1'       ! file format
rectype = 'ML'           ! record type (1L/ML)
refsys  = ECLM J2000     ! default reference system
END_OF_HEADER
1996 RO13
! Equinoctial elements: a, e*sin(LP), e*cos(LP), tan(i/2)*sin(LN), tan(i/2)*cos(LN), mean long.
 EQU   3.21771000275416E+00  0.134937092336238  0.128972223777034 -0.002463342750593 -0.000751148181267  10.6003525056102
 MJD     50345.36383972 TDT
 MAG  14.663  0.150
! RMS    1.69286E-03   2.61347E-03   7.59477E-03   1.14802E-05   1.66126E-05   2.61424E-01
! EIG   3.30100E-07   4.51928E-07   1.08166E-05   1.61022E-04   1.85007E-03   9.20578E-03
! WEA  -0.14710  -0.27724  -0.81792  -0.00123  -0.00133  -0.48218
 COV   2.865772307169208E-06  4.016057058777571E-06  9.201870247103365E-06
 COV   1.369341633393003E-08  1.361869725991322E-08  4.046167125647904E-04
 COV   6.830205980369385E-06  1.865891014893833E-05  2.800340512819699E-08
 COV   2.964371580429890E-08  6.831297477427878E-04  5.768051649342129E-05
 COV   8.695438354646933E-08  9.535286351670397E-08  1.854981654511209E-03
 COV   1.317946106997484E-10  1.364742610262885E-10  2.783322888639260E-06
 COV   2.759788761499302E-10  2.940863217350205E-06  6.834262150044772E-02
 NOR   6.710987614623500E+07 -1.678705205931719E+10  2.810529551235704E+08
 NOR   2.075328216986768E+09  1.029043017644516E+08  1.596829856663291E+08
 NOR   7.067118896767354E+12 -1.170122221461480E+11 -3.230180775194479E+09
 NOR   1.448851882016319E+10 -6.736564707354993E+10  1.951436528007495E+09
 NOR  -7.693781831397474E+09 -7.535425941909792E+08  1.115329801325160E+09
 NOR   4.876134992933672E+12  3.125740665814509E+11  1.679257415497926E+07
 NOR   2.864965396529153E+10 -1.389413572076936E+08  6.421514520783559E+08
